#aV2007  4 21  0  0   .00000000      96 DD+AD WGS84 FIT  NGA
## 1423 518400.00000000   900.00000000 54211  .0000000000000
+   30     1  2  3  4  5  6  7  8  9 10 11 12 13 14 16 17 18
+         19 20 21 22 23 24 25 26 27 28 29 30 31  0  0  0  0
+          0  0  0  0  0  0  0  0  0  0  0  0  0  0  0  0  0
+          0  0  0  0  0  0  0  0  0  0  0  0  0  0  0  0  0
+          0  0  0  0  0  0  0  0  0  0  0  0  0  0  0  0  0
++         0  0  0  0  0  0  0  0  0  0  0  0  0  0  0  0  0
++         0  0  0  0  0  0  0  0  0  0  0  0  0  0  0  0  0
++         0  0  0  0  0  0  0  0  0  0  0  0  0  0  0  0  0
++         0  0  0  0  0  0  0  0  0  0  0  0  0  0  0  0  0
++         0  0  0  0  0  0  0  0  0  0  0  0  0  0  0  0  0
%c cc cc ccc ccc cccc cccc cccc cccc ccccc ccccc ccccc ccccc
%c cc cc ccc ccc cccc cccc cccc cccc ccccc ccccc ccccc ccccc
%f  0.0000000  0.000000000  0.00000000000  0.000000000000000
%f  0.0000000  0.000000000  0.00000000000  0.000000000000000
%i    0    0    0    0      0      0      0      0         0
%i    0    0    0    0      0      0      0      0         0
/*      NGA, ST. LOUIS,MO.                                  
/*   EPHEMERIS COMPUTED FROM  3 DAYS OF DATA                
/* CCCCCCCCCCCCCCCCCCCCCCCCCCCCCCCCCCCCCCCCCCCCCCCCCCCCCCCCC
/* CCCCCCCCCCCCCCCCCCCCCCCCCCCCCCCCCCCCCCCCCCCCCCCCCCCCCCCCC
*  2007  4 21 16  0   .00000000                                                 
P  1 -13645.189425  17715.176334 -14080.783280    122.038600                    
V  1   2653.385930 -18074.112646 -25008.349988       .026012                    
P  2  21112.591047 -13654.227616   7886.673060    100.641950                    
V  2  10913.246498   -426.855836 -29410.527750       .029741                    
P  3 -10847.825869  20739.932973  12032.489834     46.023213                    
V  3  -2158.081144 -16045.375592  25612.369629       .056282                    
P  4  25838.134876  -5821.632599  -3868.056122     10.576627                    
V  4  -3598.747178   4292.933100 -30694.196676       .004343                    
P  5 -10953.007104 -20167.221200 -13735.697550     28.039386                    
V  5  15341.253262   7854.162649 -24023.311085      -.089115                    
P  6  -8039.513906 -20641.436176  14811.452417    151.342775                    
V  6   5308.608758 -17991.853352 -22526.356126       .170249                    
P  7 -11079.661721 -16794.392494  17649.357504    335.966119                    
V  7   4639.955719 -21445.369275 -17917.101004      -.156789                    
P  8  23293.034377   1998.646650  12895.884467   -104.508989                    
V  8 -15198.630014   6273.977760  25820.914000      -.013848                    
P  9   4227.140771 -16967.894400 -20516.785188     66.999875                    
V  9  23410.342683  -8247.987056  12218.421145       .017050                    
P 10  10887.550593 -10337.984280  21802.184407    100.729354                    
V 10  20816.219831  18614.618157  -1246.862054       .006030                    
P 11   -759.091712  18202.322393 -19356.782328     13.929279                    
V 11 -22519.436770  10372.632211  10988.998873       .010351                    
P 12  -7210.374372 -20297.543812 -15464.554112    -44.079221                    
V 12  16380.119790  11322.831065 -22284.663591      -.002070                    
P 13   7565.214465  18431.996882  17486.347669    165.213740                    
V 13  -5865.388787  21554.460261 -20021.757030       .036293                    
P 14 -14961.511924   1469.155920 -21808.257115     16.792458                    
V 14   5236.948866 -27319.697737  -5480.480773       .016585                    
P 16 -15768.113137   5412.515563  20794.565860    141.624410                    
V 16 -19170.020584 -17826.726968  -9794.735046       .031731                    
P 17  15219.014713   1326.849825 -21710.260767     70.921714                    
V 17  -4952.801958  27156.151255  -1936.442163      -.012485                    
P 18 -20471.441621 -17079.214330  -1959.367409   -251.333590                    
V 18    -45.938549  -3815.992218  31243.533525       .006427                    
P 19  -8045.479423  25150.029402   2352.858223     26.910605                    
V 19  -2189.011530  -3519.561470  31575.470299       .036361                    
P 20   8002.142550  20516.616408 -14979.952527    -23.882474                    
V 20 -15870.027192 -10391.401676 -22826.737841      -.003359                    
P 21 -18091.385781  -8073.022267  18058.836335     75.730138                    
V 21  21033.343718  -8337.903324  16877.440281       .006213                    
P 22 -21881.979037  -8604.828813 -12227.204152    178.111294                    
V 22  -9705.561081 -12706.757583  25961.583263       .020784                    
P 23   1454.565576  24909.549137   8725.509966    161.429367                    
V 23  -4480.137885  10601.908719 -29434.412296       .023417                    
P 24  -4326.571768 -14784.530261  21842.476963     94.539050                    
V 24  26088.443681  -7909.326337    101.306085       .029167                    
P 25  -4684.337998  17546.167560  19851.292624    215.545406                    
V 25 -22462.934720   9289.923945 -13620.720219      -.289086                    
P 26   8325.133356 -24421.296035   4386.725565   -153.231082                    
V 26    912.499381   6547.681370  32182.130329      -.201643                    
P 27  16773.397444   7804.848737  19790.542953    106.300810                    
V 27 -21399.222145  10160.752208  14373.784433       .021073                    
P 28  22249.798613  11869.973400  -8542.898926      2.738526                    
V 28   6773.059265   9246.845199  29001.509149      -.008325                    
P 29  10522.465036 -22283.054708   9611.248420      1.946917                    
V 29   -234.073640  12141.940478  29395.709264       .005045                    
P 30 -16479.569042 -19712.227742  -7265.535514     31.667379                    
V 30   8752.138361   3145.311957 -29519.991530       .010266                    
P 31 -25413.343220   7441.973033  -2305.282592     19.786510                    
V 31   2054.495313  -3632.765821 -31558.038065       .004416                    
EOF
